NORAD_CAT_ID,OBJECT_NAME,OBJECT_TYPE,EPOCH,MEAN_MOTION,ECCENTRICITY,INCLINATION,RA_OF_ASC_NODE,ARG_OF_PERICENTER,MEAN_ANOMALY,BSTAR,MEAN_MOTION_DOT,MEAN_MOTION_DDOT,TLE_LINE0,TLE_LINE1,TLE_LINE2,SEMIMAJOR_AXIS,PERIOD,APOGEE,PERIGEE,DECAYED
53162.0,STARLINK-4114,PAYLOAD,2023-10-01 04:21:49,15.08846592,0.0001432,53.2163,201.7753,88.7851,271.3305,0.00015171,2.128e-05,0.0,0 STARLINK-4114,1 53162U 22083AG  23274.18182007  .00002128  00000-0  15171-3 0  9998,2 53162  53.2163 201.7753 0001432  88.7851 271.3305 15.08846592 67553,6917.86,95.437,540.716,538.735,0.0
53162.0,STARLINK-4114,PAYLOAD,2023-10-02 18:31:04,15.08849288,0.0002148,53.2153,194.6392,93.9259,266.1979,0.0006101,9.437e-05,0.0,0 STARLINK-4114,1 53162U 22083AG  23275.77158403  .00009437  00000-0  61010-3 0  9990,2 53162  53.2153 194.6392 0002148  93.9259 266.1979 15.08849288 67796,6917.852,95.437,541.203,538.231,0.0
53162.0,STARLINK-4114,PAYLOAD,2023-10-03 04:03:23,15.08853817,0.0001602,53.2164,192.8544,114.0331,246.0828,0.00073963,0.00011507,0.0,0 STARLINK-4114,1 53162U 22083AG  23276.16902080  .00011507  00000-0  73963-3 0  9993,2 53162  53.2164 192.8544 0001602 114.0331 246.0828 15.08853817 67228,6917.838,95.437,540.811,538.595,0.0
53162.0,STARLINK-4114,PAYLOAD,2023-10-03 23:08:01,15.08839011,0.0001179,53.2156,189.2862,114.5525,245.559,0.0006019,9.304e-05,0.0,0 STARLINK-4114,1 53162U 22083AG  23276.96390902  .00009304  00000-0  60190-3 0  9995,2 53162  53.2156 189.2862 0001179 114.5525 245.5590 15.08839011 67973,6917.883,95.438,540.564,538.933,0.0
53162.0,STARLINK-4114,PAYLOAD,2023-10-04 21:23:25,15.08855219,0.0001068,53.2146,185.1227,90.5809,269.5305,0.00090826,0.00014203,0.0,0 STARLINK-4114,1 53162U 22083AG  23277.89126899  .00014203  00000-0  90826-3 0  9993,2 53162  53.2146 185.1227 0001068  90.5809 269.5305 15.08855219 67481,6917.834,95.437,540.438,538.96,0.0
53162.0,STARLINK-4114,PAYLOAD,2023-10-05 00:34:11,15.08862775,0.0001353,53.2162,184.5288,94.5578,265.5569,0.0010315,0.00016177,0.0,0 STARLINK-4114,1 53162U 22083AG  23278.02374661  .00016177  00000-0  10315-2 0  9997,2 53162  53.2162 184.5288 0001353  94.5578 265.5569 15.08862775 68139,6917.811,95.436,540.612,538.74,0.0
53162.0,STARLINK-4114,PAYLOAD,2023-10-05 21:14:12,15.08854769,0.0001428,53.2167,180.6637,81.1683,278.9471,0.00063478,9.833e-05,0.0,0 STARLINK-4114,1 53162U 22083AG  23278.88486783  .00009833  00000-0  63478-3 0  9990,2 53162  53.2167 180.6637 0001428  81.1683 278.9471 15.08854769 67639,6917.835,95.437,540.688,538.712,0.0
53162.0,STARLINK-4114,PAYLOAD,2023-10-05 22:49:35,15.08858198,0.000147,53.2162,180.3652,78.3013,281.8144,0.00079999,0.00012473,0.0,0 STARLINK-4114,1 53162U 22083AG  23278.95110728  .00012473  00000-0  79999-3 0  9990,2 53162  53.2162 180.3652 0001470  78.3013 281.8144 15.08858198 68271,6917.825,95.436,540.707,538.673,0.0
53162.0,STARLINK-4114,PAYLOAD,2023-10-06 09:57:17,15.0884732,0.0001863,53.2149,178.281,52.7261,307.3901,0.00042244,6.443e-05,0.0,0 STARLINK-4114,1 53162U 22083AG  23279.41478879  .00006443  00000-0  42244-3 0  9999,2 53162  53.2149 178.2810 0001863  52.7261 307.3901 15.08847320 68343,6917.858,95.437,541.012,538.434,0.0
53162.0,STARLINK-4114,PAYLOAD,2023-10-06 13:08:04,15.08827749,0.0001726,53.2169,177.6917,98.7834,261.3354,6.9408e-05,8.16e-06,0.0,0 STARLINK-4114,1 53162U 22083AG  23279.54726911  .00000816  00000-0  69408-4 0  9996,2 53162  53.2169 177.6917 0001726  98.7834 261.3354 15.08827749 67736,6917.918,95.438,540.977,538.589,0.0
53162.0,STARLINK-4114,PAYLOAD,2023-10-06 22:40:23,15.08834743,0.0001657,53.2156,175.906,82.623,277.495,0.00020021,2.899e-05,0.0,0 STARLINK-4114,1 53162U 22083AG  23279.94471489  .00002899  00000-0  20021-3 0  9997,2 53162  53.2156 175.9060 0001657  82.6230 277.4950 15.08834743 67795,6917.896,95.438,540.908,538.615,0.0
53162.0,STARLINK-4114,PAYLOAD,2023-10-07 12:58:51,15.08836619,0.0001618,53.2155,173.2308,88.3748,271.7429,0.0005716,8.82e-05,0.0,0 STARLINK-4114,1 53162U 22083AG  23280.54087783  .00008820  00000-0  57160-3 0  9999,2 53162  53.2155 173.2308 0001618  88.3748 271.7429 15.08836619 67886,6917.891,95.438,540.875,538.636,0.0
53162.0,STARLINK-4114,PAYLOAD,2023-10-07 17:45:01,15.08839492,0.0001522,53.2155,172.3386,86.1992,273.9174,0.00057096,8.81e-05,0.0,0 STARLINK-4114,1 53162U 22083AG  23280.73959786  .00008810  00000-0  57096-3 0  9998,2 53162  53.2155 172.3386 0001522  86.1992 273.9174 15.08839492 68540,6917.882,95.438,540.8,538.694,0.0
53162.0,STARLINK-4114,PAYLOAD,2023-10-07 22:31:10,15.08849603,0.0001605,53.2155,171.4472,94.4537,265.6638,0.0006799,0.00010552,0.0,0 STARLINK-4114,1 53162U 22083AG  23280.93831461  .00010552  00000-0  67990-3 0  9999,2 53162  53.2155 171.4472 0001605  94.4537 265.6638 15.08849603 67946,6917.851,95.437,540.826,538.606,0.0
53162.0,STARLINK-4114,PAYLOAD,2023-10-08 00:06:33,15.08854543,0.0001604,53.2155,171.1501,97.5092,262.6082,0.00081721,0.00012747,0.0,0 STARLINK-4114,1 53162U 22083AG  23281.00455319  .00012747  00000-0  81721-3 0  9998,2 53162  53.2155 171.1501 0001604  97.5092 262.6082 15.08854543 68585,6917.836,95.437,540.811,538.591,0.0
53162.0,STARLINK-4114,PAYLOAD,2023-10-08 09:38:51,15.08854022,0.0001467,53.2156,169.3657,88.3775,271.7385,0.00038903,5.911e-05,0.0,0 STARLINK-4114,1 53162U 22083AG  23281.40199069  .00005911  00000-0  38903-3 0  9998,2 53162  53.2156 169.3657 0001467  88.3775 271.7385 15.08854022 68646,6917.838,95.437,540.717,538.688,0.0
53162.0,STARLINK-4114,PAYLOAD,2023-10-08 20:46:34,15.08844009,0.0001685,53.2154,167.2833,85.4977,274.6207,-8.42e-06,-4.22e-06,0.0,0 STARLINK-4114,1 53162U 22083AG  23281.86567135 -.00000422  00000-0 -84200-5 0  9998,2 53162  53.2154 167.2833 0001685  85.4977 274.6207 15.08844009 68088,6917.868,95.437,540.899,538.567,0.0
53162.0,STARLINK-4114,PAYLOAD,2023-10-09 01:32:43,15.08848559,0.0001592,53.2169,166.3887,79.8864,280.2307,0.00023255,3.416e-05,0.0,0 STARLINK-4114,1 53162U 22083AG  23282.06439040  .00003416  00000-0  23255-3 0  9999,2 53162  53.2169 166.3887 0001592  79.8864 280.2307 15.08848559 68743,6917.854,95.437,540.821,538.618,0.0
53162.0,STARLINK-4114,PAYLOAD,2023-10-09 09:29:39,15.08840432,0.0001183,53.2155,164.9057,101.4805,258.632,-1.4154e-05,-5.13e-06,0.0,0 STARLINK-4114,1 53162U 22083AG  23282.39559100 -.00000513  00000-0 -14154-4 0  9991,2 53162  53.2155 164.9057 0001183 101.4805 258.6320 15.08840432 68166,6917.879,95.438,540.562,538.926,0.0
53162.0,STARLINK-4114,PAYLOAD,2023-10-09 20:37:21,15.08836637,0.0001331,53.2155,162.8223,94.3648,265.7496,-3.1896e-05,-7.95e-06,0.0,0 STARLINK-4114,1 53162U 22083AG  23282.85927459 -.00000795  00000-0 -31896-4 0  9992,2 53162  53.2155 162.8223 0001331  94.3648 265.7496 15.08836637 68231,6917.891,95.438,540.676,538.835,0.0
53162.0,STARLINK-4114,PAYLOAD,2023-10-10 09:20:26,15.08835734,0.0001408,53.2162,160.4417,92.2134,267.902,0.00012882,1.763e-05,0.0,0 STARLINK-4114,1 53162U 22083AG  23283.38919684  .00001763  00000-0  12882-3 0  9999,2 53162  53.2162 160.4417 0001408  92.2134 267.9020 15.08835734 68942,6917.893,95.438,540.732,538.784,0.0
53162.0,STARLINK-4114,PAYLOAD,2023-10-10 22:03:32,15.08833045,0.0001148,53.2157,158.0627,103.6102,256.5018,0.00025128,3.713e-05,0.0,0 STARLINK-4114,1 53162U 22083AG  23283.91912065  .00003713  00000-0  25128-3 0  9998,2 53162  53.2157 158.0627 0001148 103.6102 256.5018 15.08833045 68398,6917.902,95.438,540.561,538.972,0.0
53162.0,STARLINK-4114,PAYLOAD,2023-10-11 09:11:14,15.0883966,0.0001157,53.2158,155.9809,104.2244,255.8877,0.00033808,5.097e-05,0.0,0 STARLINK-4114,1 53162U 22083AG  23284.38280097  .00005097  00000-0  33808-3 0  9994,2 53162  53.2158 155.9809 0001157 104.2244 255.8877 15.08839660 68463,6917.881,95.438,540.547,538.946,0.0
53162.0,STARLINK-4114,PAYLOAD,2023-10-11 18:43:32,15.08845685,0.0001172,53.2158,154.1962,105.9774,254.1347,0.00041205,6.277e-05,0.0,0 STARLINK-4114,1 53162U 22083AG  23284.78023998  .00006277  00000-0  41205-3 0  9994,2 53162  53.2158 154.1962 0001172 105.9774 254.1347 15.08845685 69152,6917.863,95.437,540.539,538.917,0.0
53162.0,STARLINK-4114,PAYLOAD,2023-10-12 01:05:05,15.08856395,0.0001204,53.2161,153.0076,97.999,262.1139,0.00073241,0.00011393,0.0,0 STARLINK-4114,1 53162U 22083AG  23285.04519726  .00011393  00000-0  73241-3 0  9993,2 53162  53.2161 153.0076 0001204  97.9990 262.1139 15.08856395 69198,6917.83,95.437,540.528,538.862,0.0
53162.0,STARLINK-4114,PAYLOAD,2023-10-12 10:37:23,15.08850254,9.73e-05,53.2165,151.2247,102.7081,257.402,0.0003624,5.486e-05,0.0,0 STARLINK-4114,1 53162U 22083AG  23285.44263729  .00005486  00000-0  36240-3 0  9990,2 53162  53.2165 151.2247 0000973 102.7081 257.4020 15.08850254 68621,6917.849,95.437,540.387,539.041,0.0
53162.0,STARLINK-4114,PAYLOAD,2023-10-12 20:09:42,15.08848445,0.000105,53.2156,149.4404,93.637,266.4742,0.0002505,3.702e-05,0.0,0 STARLINK-4114,1 53162U 22083AG  23285.84007665  .00003702  00000-0  25050-3 0  9995,2 53162  53.2156 149.4404 0001050  93.6370 266.4742 15.08848445 69318,6917.855,95.437,540.446,538.993,0.0
53162.0,STARLINK-4114,PAYLOAD,2023-10-12 21:45:05,15.08851066,0.0001053,53.2156,149.1439,83.6103,276.5009,0.00032278,4.854e-05,0.0,0 STARLINK-4114,1 53162U 22083AG  23285.90631590  .00004854  00000-0  32278-3 0  9991,2 53162  53.2156 149.1439 0001053  83.6103 276.5009 15.08851066 68690,6917.847,95.437,540.44,538.983,0.0
53162.0,STARLINK-4114,PAYLOAD,2023-10-13 00:55:51,15.08857774,0.0001017,53.2157,148.548,90.3315,269.7793,0.00043479,6.642e-05,0.0,0 STARLINK-4114,1 53162U 22083AG  23286.03879295  .00006642  00000-0  43479-3 0  9994,2 53162  53.2157 148.5480 0001017  90.3315 269.7793 15.08857774 69349,6917.826,95.436,540.395,538.988,0.0
53162.0,STARLINK-4114,PAYLOAD,2023-10-13 20:00:29,15.08849224,0.0001149,53.216,144.9789,97.603,262.5093,0.00017846,2.554e-05,0.0,0 STARLINK-4114,1 53162U 22083AG  23286.83367353  .00002554  00000-0  17846-3 0  9996,2 53162  53.2160 144.9789 0001149  97.6030 262.5093 15.08849224 69463,6917.852,95.437,540.512,538.922,0.0
